{
  "norad_id": 62582,
  "name": "CENTISPACE-1 S13",
  "history": [
    {
      "epoch": "2026-04-13T05:02:55.777056Z",
      "apogee_km": 968.7531123290482,
      "perigee_km": 954.791137191929,
      "latitude_deg": 5.113140722078312e-05,
      "longitude_deg": -118.41678585939275,
      "height_km": 957.1422697777665,
      "semi_major_axis_km": 7339.909124760488,
      "eccentricity": 0.0009511,
      "inclination_deg": 54.9795,
      "raan_deg": 158.72,
      "arg_perigee_deg": 324.1095,
      "mean_anomaly_deg": 35.9222,
      "mean_motion_rev_day": 13.80596403
    },
    {
      "epoch": "2026-04-14T15:48:09.697248Z",
      "apogee_km": 968.823848243549,
      "perigee_km": 954.7194797548073,
      "latitude_deg": -6.073609738130537e-05,
      "longitude_deg": 73.7838462275935,
      "height_km": 956.8614526647699,
      "semi_major_axis_km": 7339.908663999177,
      "eccentricity": 0.0009608,
      "inclination_deg": 54.9792,
      "raan_deg": 153.656,
      "arg_perigee_deg": 327.3187,
      "mean_anomaly_deg": 32.7173,
      "mean_motion_rev_day": 13.80596533
    },
    {
      "epoch": "2026-04-15T19:36:20.813184Z",
      "apogee_km": 968.8929600662832,
      "perigee_km": 954.6491345097156,
      "latitude_deg": 6.2699573386185985e-06,
      "longitude_deg": 11.544446447019803,
      "height_km": 956.6409627923884,
      "semi_major_axis_km": 7339.908047287999,
      "eccentricity": 0.0009703,
      "inclination_deg": 54.9792,
      "raan_deg": 149.6047,
      "arg_perigee_deg": 329.8026,
      "mean_anomaly_deg": 30.237,
      "mean_motion_rev_day": 13.80596707
    },
    {
      "epoch": "2026-04-16T19:56:00.537792Z",
      "apogee_km": 968.9498175451154,
      "perigee_km": 954.5914901926171,
      "latitude_deg": 6.869683280653322e-06,
      "longitude_deg": 2.0850264120020547,
      "height_km": 956.4570923698824,
      "semi_major_axis_km": 7339.907653868866,
      "eccentricity": 0.0009781,
      "inclination_deg": 54.9791,
      "raan_deg": 146.0599,
      "arg_perigee_deg": 331.999,
      "mean_anomaly_deg": 28.0439,
      "mean_motion_rev_day": 13.80596818
    },
    {
      "epoch": "2026-04-17T21:59:55.948128Z",
      "apogee_km": 969.0156272619379,
      "perigee_km": 954.5250354102673,
      "latitude_deg": -3.964301464737531e-05,
      "longitude_deg": -33.764348632914384,
      "height_km": 956.2669774696668,
      "semi_major_axis_km": 7339.907331336102,
      "eccentricity": 0.00098711,
      "inclination_deg": 54.9791,
      "raan_deg": 142.2619,
      "arg_perigee_deg": 334.2966,
      "mean_anomaly_deg": 25.7498,
      "mean_motion_rev_day": 13.80596909
    }
  ]
}